STARLINK-1810           
1 46709U 20073AR  26069.00003471  .00110175  00000+0  21319-2 0  9998
2 46709  53.0474 230.4969 0003620 174.4348  86.5459 15.46905484  5756
STARLINK-1888           
1 47171U 20088BB  26068.89816594  .00076565  00000+0  14211-2 0  9999
2 47171  53.0534 278.4893 0004873 159.2034 200.9172 15.48275914292188
